O3B MPOWER F1           
1 54755U 22174A   26188.66115315 -.00000009  00000+0  00000+0 0  9993
2 54755   0.0499 339.8246 0006565 138.4098 113.9011  5.00114838 66389
O3B MPOWER F2           
1 54756U 22174B   26188.49901017 -.00000009  00000+0  00000+0 0  9997
2 54756   0.0458 339.9730 0005816 121.3324 258.7606  5.00114954 66461
O3B MPOWER F4           
1 56367U 23059A   26188.36335749 -.00000009  00000+0  00000+0 0  9999
2 56367   0.0630 351.1800 0007713 118.8091 250.0946  5.00115403 59618
O3B MPOWER F3           
1 56368U 23059B   26188.59639513 -.00000009  00000+0  00000+0 0  9991
2 56368   0.0637 350.5143 0006686 112.8738 256.6871  5.00116401 55758
O3B MPOWER F5           
1 58346U 23175A   26188.49749375 -.00000009  00000+0  00000+0 0  9995
2 58346   0.0513   9.7848 0005408 114.3791 235.8880  5.00115884 50456
O3B MPOWER F6           
1 58347U 23175B   26188.59796750 -.00000009  00000+0  00000+0 0  9996
2 58347   0.0534   1.5260 0004442 102.2183 256.3058  5.00115834 49375
O3B MPOWER F7           
1 62362U 24244A   26188.26458123 -.00000009  00000+0  00000+0 0  9999
2 62362   0.0665 344.2337 0005964 117.1791 258.6548  5.00115271 27532
O3B MPOWER F8           
1 62363U 24244B   26188.63130775 -.00000009  00000+0  00000+0 0  9991
2 62363   0.0142 354.7171 0005816 100.5309 264.8190  5.00115065 21898
O3B MPOWER F9           
1 64866U 25153A   26188.56470013 -.00000009  00000+0  00000+0 0  9995
2 64866   0.0605   6.6608 0006639 118.6219 234.7800  5.00115681 20587
O3B MPOWER F10          
1 64867U 25153B   26188.53074006 -.00000009  00000+0  00000+0 0  9995
2 64867   0.0577   3.1146 0002207 246.3417 110.5206  5.00114859 23053
