{"fetched_at":"2026-07-08T07:04:10.318Z","source":"https://celestrak.org/NORAD/elements/gp.php?NAME=O3B&FORMAT=JSON","constellation":"o3b-mpower","records":[{"OBJECT_NAME":"O3B MPOWER F1","OBJECT_ID":"2022-174A","EPOCH":"2026-07-07T15:52:03.632160","CLASSIFICATION_TYPE":"U","MEAN_MOTION":5.00114838,"ECCENTRICITY":0.0006565,"INCLINATION":0.0499,"RA_OF_ASC_NODE":339.8246,"ARG_OF_PERICENTER":138.4098,"MEAN_ANOMALY":113.9011,"EPHEMERIS_TYPE":0,"NORAD_CAT_ID":54755,"ELEMENT_SET_NO":999,"REV_AT_EPOCH":6638,"BSTAR":0,"MEAN_MOTION_DOT":-9e-8,"MEAN_MOTION_DDOT":0},{"OBJECT_NAME":"O3B MPOWER F2","OBJECT_ID":"2022-174B","EPOCH":"2026-07-07T11:58:34.478688","CLASSIFICATION_TYPE":"U","MEAN_MOTION":5.00114954,"ECCENTRICITY":0.0005816,"INCLINATION":0.0458,"RA_OF_ASC_NODE":339.973,"ARG_OF_PERICENTER":121.3324,"MEAN_ANOMALY":258.7606,"EPHEMERIS_TYPE":0,"NORAD_CAT_ID":54756,"ELEMENT_SET_NO":999,"REV_AT_EPOCH":6646,"BSTAR":0,"MEAN_MOTION_DOT":-9e-8,"MEAN_MOTION_DDOT":0},{"OBJECT_NAME":"O3B MPOWER F4","OBJECT_ID":"2023-059A","EPOCH":"2026-07-07T08:43:14.087136","CLASSIFICATION_TYPE":"U","MEAN_MOTION":5.00115403,"ECCENTRICITY":0.0007713,"INCLINATION":0.063,"RA_OF_ASC_NODE":351.18,"ARG_OF_PERICENTER":118.8091,"MEAN_ANOMALY":250.0946,"EPHEMERIS_TYPE":0,"NORAD_CAT_ID":56367,"ELEMENT_SET_NO":999,"REV_AT_EPOCH":5961,"BSTAR":0,"MEAN_MOTION_DOT":-9e-8,"MEAN_MOTION_DDOT":0},{"OBJECT_NAME":"O3B MPOWER F3","OBJECT_ID":"2023-059B","EPOCH":"2026-07-07T14:18:48.539232","CLASSIFICATION_TYPE":"U","MEAN_MOTION":5.00116401,"ECCENTRICITY":0.0006686,"INCLINATION":0.0637,"RA_OF_ASC_NODE":350.5143,"ARG_OF_PERICENTER":112.8738,"MEAN_ANOMALY":256.6871,"EPHEMERIS_TYPE":0,"NORAD_CAT_ID":56368,"ELEMENT_SET_NO":999,"REV_AT_EPOCH":5575,"BSTAR":0,"MEAN_MOTION_DOT":-9e-8,"MEAN_MOTION_DDOT":0},{"OBJECT_NAME":"O3B MPOWER F5","OBJECT_ID":"2023-175A","EPOCH":"2026-07-07T11:56:23.460000","CLASSIFICATION_TYPE":"U","MEAN_MOTION":5.00115884,"ECCENTRICITY":0.0005408,"INCLINATION":0.0513,"RA_OF_ASC_NODE":9.7848,"ARG_OF_PERICENTER":114.3791,"MEAN_ANOMALY":235.888,"EPHEMERIS_TYPE":0,"NORAD_CAT_ID":58346,"ELEMENT_SET_NO":999,"REV_AT_EPOCH":5045,"BSTAR":0,"MEAN_MOTION_DOT":-9e-8,"MEAN_MOTION_DDOT":0},{"OBJECT_NAME":"O3B MPOWER F6","OBJECT_ID":"2023-175B","EPOCH":"2026-07-07T14:21:04.392000","CLASSIFICATION_TYPE":"U","MEAN_MOTION":5.00115834,"ECCENTRICITY":0.0004442,"INCLINATION":0.0534,"RA_OF_ASC_NODE":1.526,"ARG_OF_PERICENTER":102.2183,"MEAN_ANOMALY":256.3058,"EPHEMERIS_TYPE":0,"NORAD_CAT_ID":58347,"ELEMENT_SET_NO":999,"REV_AT_EPOCH":4937,"BSTAR":0,"MEAN_MOTION_DOT":-9e-8,"MEAN_MOTION_DDOT":0},{"OBJECT_NAME":"O3B MPOWER F7","OBJECT_ID":"2024-244A","EPOCH":"2026-07-07T06:20:59.818272","CLASSIFICATION_TYPE":"U","MEAN_MOTION":5.00115271,"ECCENTRICITY":0.00059647,"INCLINATION":0.0665,"RA_OF_ASC_NODE":344.2337,"ARG_OF_PERICENTER":117.1791,"MEAN_ANOMALY":258.6548,"EPHEMERIS_TYPE":0,"NORAD_CAT_ID":62362,"ELEMENT_SET_NO":999,"REV_AT_EPOCH":2753,"BSTAR":0,"MEAN_MOTION_DOT":-9e-8,"MEAN_MOTION_DDOT":0},{"OBJECT_NAME":"O3B MPOWER F8","OBJECT_ID":"2024-244B","EPOCH":"2026-07-07T15:09:04.989600","CLASSIFICATION_TYPE":"U","MEAN_MOTION":5.00115065,"ECCENTRICITY":0.0005816,"INCLINATION":0.0142,"RA_OF_ASC_NODE":354.7171,"ARG_OF_PERICENTER":100.5309,"MEAN_ANOMALY":264.819,"EPHEMERIS_TYPE":0,"NORAD_CAT_ID":62363,"ELEMENT_SET_NO":999,"REV_AT_EPOCH":2189,"BSTAR":0,"MEAN_MOTION_DOT":-9e-8,"MEAN_MOTION_DDOT":0},{"OBJECT_NAME":"O3B MPOWER F9","OBJECT_ID":"2025-153A","EPOCH":"2026-07-07T13:33:10.091232","CLASSIFICATION_TYPE":"U","MEAN_MOTION":5.00115681,"ECCENTRICITY":0.0006639,"INCLINATION":0.0605,"RA_OF_ASC_NODE":6.6608,"ARG_OF_PERICENTER":118.6219,"MEAN_ANOMALY":234.78,"EPHEMERIS_TYPE":0,"NORAD_CAT_ID":64866,"ELEMENT_SET_NO":999,"REV_AT_EPOCH":2058,"BSTAR":0,"MEAN_MOTION_DOT":-9e-8,"MEAN_MOTION_DDOT":0},{"OBJECT_NAME":"O3B MPOWER F10","OBJECT_ID":"2025-153B","EPOCH":"2026-07-07T12:44:15.941184","CLASSIFICATION_TYPE":"U","MEAN_MOTION":5.00114859,"ECCENTRICITY":0.0002207,"INCLINATION":0.0577,"RA_OF_ASC_NODE":3.1146,"ARG_OF_PERICENTER":246.3417,"MEAN_ANOMALY":110.5206,"EPHEMERIS_TYPE":0,"NORAD_CAT_ID":64867,"ELEMENT_SET_NO":999,"REV_AT_EPOCH":2305,"BSTAR":0,"MEAN_MOTION_DOT":-9e-8,"MEAN_MOTION_DDOT":0}]}
